STARLINK-36432          
1 67342U 26003J   26020.25002315 -.01468947  00000+0 -68320-2 0  9992
2 67342  42.9982 146.9828 0001430 271.2268  68.4725 15.84995605  2873
STARLINK-36458          
1 67343U 26003K   26020.25002315 -.01483915  00000+0 -69048-2 0  9993
2 67343  42.9981 146.9778 0001539 269.0077  72.7220 15.85011739  2887
STARLINK-36422          
1 67344U 26003L   26020.25002315 -.01495096  00000+0 -69697-2 0  9997
2 67344  42.9980 146.9708 0001584 271.9705  72.3517 15.84993563  2877
STARLINK-35676          
1 67345U 26003M   26020.25002315 -.01508466  00000+0 -70446-2 0  9998
2 67345  42.9982 146.9648 0001542 272.3621  74.4502 15.84981632  2870
STARLINK-36472          
1 67346U 26003N   26020.25002315 -.01502886  00000+0 -70143-2 0  9993
2 67346  42.9983 146.9591 0001497 271.4371  77.4935 15.84984565  2871
STARLINK-36420          
1 67347U 26003P   26020.25002315 -.01524547  00000+0 -71321-2 0  9991
2 67347  42.9984 146.9474 0001601 275.6106  78.0260 15.84974657  2882
STARLINK-36467          
1 67348U 26003Q   26020.25002315 -.01515063  00000+0 -70844-2 0  9994
2 67348  42.9984 146.9533 0001605 275.1647  76.3338 15.84966973  2887
STARLINK-36457          
1 67349U 26003R   26020.25002315 -.01529013  00000+0 -71647-2 0  9997
2 67349  42.9984 146.9409 0001509 269.0740  87.2000 15.84950443  2881
STARLINK-36475          
1 67350U 26003S   26020.25002315 -.01560058  00000+0 -73323-2 0  9996
2 67350  42.9983 146.9342 0001535 273.5320  85.2851 15.84944951  2879
STARLINK-36478          
1 67351U 26003T   26020.25002315 -.01532072  00000+0 -71833-2 0  9996
2 67351  42.9984 146.9293 0001523 272.2693  88.5573 15.84943652  2876
STARLINK-36479          
1 67352U 26003U   26020.25002315 -.01535645  00000+0 -71989-2 0  9998
2 67352  42.9984 146.9240 0001563 271.1503  91.7612 15.84953054  2889
STARLINK-36474          
1 67353U 26003V   26020.25002315 -.01549829  00000+0 -72776-2 0  9993
2 67353  42.9981 146.9182 0001465 265.0098 100.3106 15.84945837  2889
