CCSDS_OMM_VERS = 2.0
CREATION_DATE  = 
ORIGINATOR     = 

OBJECT_NAME    = STARLINK-36432
OBJECT_ID      = 2026-003J
CENTER_NAME    = EARTH
REF_FRAME      = TEME
TIME_SYSTEM    = UTC
MEAN_ELEMENT_THEORY = SGP/SGP4

EPOCH          = 2026-01-20T06:00:02.000160
MEAN_MOTION    = 15.84995605
ECCENTRICITY   = .00014304
INCLINATION    = 42.9982
RA_OF_ASC_NODE = 146.9828
ARG_OF_PERICENTER = 271.2268
MEAN_ANOMALY   = 68.4725

EPHEMERIS_TYPE = 0
CLASSIFICATION_TYPE = U
NORAD_CAT_ID   = 67342
ELEMENT_SET_NO = 999
REV_AT_EPOCH   = 287
BSTAR          = -.68319542E-2
MEAN_MOTION_DOT = -.1468947E-1
MEAN_MOTION_DDOT = 0

CCSDS_OMM_VERS = 2.0
CREATION_DATE  = 
ORIGINATOR     = 

OBJECT_NAME    = STARLINK-36458
OBJECT_ID      = 2026-003K
CENTER_NAME    = EARTH
REF_FRAME      = TEME
TIME_SYSTEM    = UTC
MEAN_ELEMENT_THEORY = SGP/SGP4

EPOCH          = 2026-01-20T06:00:02.000160
MEAN_MOTION    = 15.85011739
ECCENTRICITY   = .00015397
INCLINATION    = 42.9981
RA_OF_ASC_NODE = 146.9778
ARG_OF_PERICENTER = 269.0077
MEAN_ANOMALY   = 72.7220

EPHEMERIS_TYPE = 0
CLASSIFICATION_TYPE = U
NORAD_CAT_ID   = 67343
ELEMENT_SET_NO = 999
REV_AT_EPOCH   = 288
BSTAR          = -.69048049E-2
MEAN_MOTION_DOT = -.1483915E-1
MEAN_MOTION_DDOT = 0

CCSDS_OMM_VERS = 2.0
CREATION_DATE  = 
ORIGINATOR     = 

OBJECT_NAME    = STARLINK-36422
OBJECT_ID      = 2026-003L
CENTER_NAME    = EARTH
REF_FRAME      = TEME
TIME_SYSTEM    = UTC
MEAN_ELEMENT_THEORY = SGP/SGP4

EPOCH          = 2026-01-20T06:00:02.000160
MEAN_MOTION    = 15.84993563
ECCENTRICITY   = .00015848
INCLINATION    = 42.9980
RA_OF_ASC_NODE = 146.9708
ARG_OF_PERICENTER = 271.9705
MEAN_ANOMALY   = 72.3517

EPHEMERIS_TYPE = 0
CLASSIFICATION_TYPE = U
NORAD_CAT_ID   = 67344
ELEMENT_SET_NO = 999
REV_AT_EPOCH   = 287
BSTAR          = -.69697048E-2
MEAN_MOTION_DOT = -.1495096E-1
MEAN_MOTION_DDOT = 0

CCSDS_OMM_VERS = 2.0
CREATION_DATE  = 
ORIGINATOR     = 

OBJECT_NAME    = STARLINK-35676
OBJECT_ID      = 2026-003M
CENTER_NAME    = EARTH
REF_FRAME      = TEME
TIME_SYSTEM    = UTC
MEAN_ELEMENT_THEORY = SGP/SGP4

EPOCH          = 2026-01-20T06:00:02.000160
MEAN_MOTION    = 15.84981632
ECCENTRICITY   = .00015428
INCLINATION    = 42.9982
RA_OF_ASC_NODE = 146.9648
ARG_OF_PERICENTER = 272.3621
MEAN_ANOMALY   = 74.4502

EPHEMERIS_TYPE = 0
CLASSIFICATION_TYPE = U
NORAD_CAT_ID   = 67345
ELEMENT_SET_NO = 999
REV_AT_EPOCH   = 287
BSTAR          = -.7044635E-2
MEAN_MOTION_DOT = -.1508466E-1
MEAN_MOTION_DDOT = 0

CCSDS_OMM_VERS = 2.0
CREATION_DATE  = 
ORIGINATOR     = 

OBJECT_NAME    = STARLINK-36472
OBJECT_ID      = 2026-003N
CENTER_NAME    = EARTH
REF_FRAME      = TEME
TIME_SYSTEM    = UTC
MEAN_ELEMENT_THEORY = SGP/SGP4

EPOCH          = 2026-01-20T06:00:02.000160
MEAN_MOTION    = 15.84984565
ECCENTRICITY   = .00014978
INCLINATION    = 42.9983
RA_OF_ASC_NODE = 146.9591
ARG_OF_PERICENTER = 271.4371
MEAN_ANOMALY   = 77.4935

EPHEMERIS_TYPE = 0
CLASSIFICATION_TYPE = U
NORAD_CAT_ID   = 67346
ELEMENT_SET_NO = 999
REV_AT_EPOCH   = 287
BSTAR          = -.70142854E-2
MEAN_MOTION_DOT = -.1502886E-1
MEAN_MOTION_DDOT = 0

CCSDS_OMM_VERS = 2.0
CREATION_DATE  = 
ORIGINATOR     = 

OBJECT_NAME    = STARLINK-36420
OBJECT_ID      = 2026-003P
CENTER_NAME    = EARTH
REF_FRAME      = TEME
TIME_SYSTEM    = UTC
MEAN_ELEMENT_THEORY = SGP/SGP4

EPOCH          = 2026-01-20T06:00:02.000160
MEAN_MOTION    = 15.84974657
ECCENTRICITY   = .00016019
INCLINATION    = 42.9984
RA_OF_ASC_NODE = 146.9474
ARG_OF_PERICENTER = 275.6106
MEAN_ANOMALY   = 78.0260

EPHEMERIS_TYPE = 0
CLASSIFICATION_TYPE = U
NORAD_CAT_ID   = 67347
ELEMENT_SET_NO = 999
REV_AT_EPOCH   = 288
BSTAR          = -.7132096E-2
MEAN_MOTION_DOT = -.1524547E-1
MEAN_MOTION_DDOT = 0

CCSDS_OMM_VERS = 2.0
CREATION_DATE  = 
ORIGINATOR     = 

OBJECT_NAME    = STARLINK-36467
OBJECT_ID      = 2026-003Q
CENTER_NAME    = EARTH
REF_FRAME      = TEME
TIME_SYSTEM    = UTC
MEAN_ELEMENT_THEORY = SGP/SGP4

EPOCH          = 2026-01-20T06:00:02.000160
MEAN_MOTION    = 15.84966973
ECCENTRICITY   = .00016052
INCLINATION    = 42.9984
RA_OF_ASC_NODE = 146.9533
ARG_OF_PERICENTER = 275.1647
MEAN_ANOMALY   = 76.3338

EPHEMERIS_TYPE = 0
CLASSIFICATION_TYPE = U
NORAD_CAT_ID   = 67348
ELEMENT_SET_NO = 999
REV_AT_EPOCH   = 288
BSTAR          = -.70843975E-2
MEAN_MOTION_DOT = -.1515063E-1
MEAN_MOTION_DDOT = 0

CCSDS_OMM_VERS = 2.0
CREATION_DATE  = 
ORIGINATOR     = 

OBJECT_NAME    = STARLINK-36457
OBJECT_ID      = 2026-003R
CENTER_NAME    = EARTH
REF_FRAME      = TEME
TIME_SYSTEM    = UTC
MEAN_ELEMENT_THEORY = SGP/SGP4

EPOCH          = 2026-01-20T06:00:02.000160
MEAN_MOTION    = 15.84950443
ECCENTRICITY   = .00015095
INCLINATION    = 42.9984
RA_OF_ASC_NODE = 146.9409
ARG_OF_PERICENTER = 269.0740
MEAN_ANOMALY   = 87.2000

EPHEMERIS_TYPE = 0
CLASSIFICATION_TYPE = U
NORAD_CAT_ID   = 67349
ELEMENT_SET_NO = 999
REV_AT_EPOCH   = 288
BSTAR          = -.71646817E-2
MEAN_MOTION_DOT = -.1529013E-1
MEAN_MOTION_DDOT = 0

CCSDS_OMM_VERS = 2.0
CREATION_DATE  = 
ORIGINATOR     = 

OBJECT_NAME    = STARLINK-36475
OBJECT_ID      = 2026-003S
CENTER_NAME    = EARTH
REF_FRAME      = TEME
TIME_SYSTEM    = UTC
MEAN_ELEMENT_THEORY = SGP/SGP4

EPOCH          = 2026-01-20T06:00:02.000160
MEAN_MOTION    = 15.84944951
ECCENTRICITY   = .00015351
INCLINATION    = 42.9983
RA_OF_ASC_NODE = 146.9342
ARG_OF_PERICENTER = 273.5320
MEAN_ANOMALY   = 85.2851

EPHEMERIS_TYPE = 0
CLASSIFICATION_TYPE = U
NORAD_CAT_ID   = 67350
ELEMENT_SET_NO = 999
REV_AT_EPOCH   = 287
BSTAR          = -.73323401E-2
MEAN_MOTION_DOT = -.1560058E-1
MEAN_MOTION_DDOT = 0

CCSDS_OMM_VERS = 2.0
CREATION_DATE  = 
ORIGINATOR     = 

OBJECT_NAME    = STARLINK-36478
OBJECT_ID      = 2026-003T
CENTER_NAME    = EARTH
REF_FRAME      = TEME
TIME_SYSTEM    = UTC
MEAN_ELEMENT_THEORY = SGP/SGP4

EPOCH          = 2026-01-20T06:00:02.000160
MEAN_MOTION    = 15.84943652
ECCENTRICITY   = .00015231
INCLINATION    = 42.9984
RA_OF_ASC_NODE = 146.9293
ARG_OF_PERICENTER = 272.2693
MEAN_ANOMALY   = 88.5573

EPHEMERIS_TYPE = 0
CLASSIFICATION_TYPE = U
NORAD_CAT_ID   = 67351
ELEMENT_SET_NO = 999
REV_AT_EPOCH   = 287
BSTAR          = -.71833023E-2
MEAN_MOTION_DOT = -.1532072E-1
MEAN_MOTION_DDOT = 0

CCSDS_OMM_VERS = 2.0
CREATION_DATE  = 
ORIGINATOR     = 

OBJECT_NAME    = STARLINK-36479
OBJECT_ID      = 2026-003U
CENTER_NAME    = EARTH
REF_FRAME      = TEME
TIME_SYSTEM    = UTC
MEAN_ELEMENT_THEORY = SGP/SGP4

EPOCH          = 2026-01-20T06:00:02.000160
MEAN_MOTION    = 15.84953054
ECCENTRICITY   = .00015636
INCLINATION    = 42.9984
RA_OF_ASC_NODE = 146.9240
ARG_OF_PERICENTER = 271.1503
MEAN_ANOMALY   = 91.7612

EPHEMERIS_TYPE = 0
CLASSIFICATION_TYPE = U
NORAD_CAT_ID   = 67352
ELEMENT_SET_NO = 999
REV_AT_EPOCH   = 288
BSTAR          = -.71988711E-2
MEAN_MOTION_DOT = -.1535645E-1
MEAN_MOTION_DDOT = 0

CCSDS_OMM_VERS = 2.0
CREATION_DATE  = 
ORIGINATOR     = 

OBJECT_NAME    = STARLINK-36474
OBJECT_ID      = 2026-003V
CENTER_NAME    = EARTH
REF_FRAME      = TEME
TIME_SYSTEM    = UTC
MEAN_ELEMENT_THEORY = SGP/SGP4

EPOCH          = 2026-01-20T06:00:02.000160
MEAN_MOTION    = 15.84945837
ECCENTRICITY   = .00014658
INCLINATION    = 42.9981
RA_OF_ASC_NODE = 146.9182
ARG_OF_PERICENTER = 265.0098
MEAN_ANOMALY   = 100.3106

EPHEMERIS_TYPE = 0
CLASSIFICATION_TYPE = U
NORAD_CAT_ID   = 67353
ELEMENT_SET_NO = 999
REV_AT_EPOCH   = 288
BSTAR          = -.72775627E-2
MEAN_MOTION_DOT = -.1549829E-1
MEAN_MOTION_DDOT = 0

